[{"OBJECT_NAME":"GHGSAT-C3","OBJECT_ID":"2022-057F","EPOCH":"2026-03-09T22:30:13.234752","MEAN_MOTION":15.32943835,"ECCENTRICITY":0.00073198,"INCLINATION":97.6431,"RA_OF_ASC_NODE":211.0668,"ARG_OF_PERICENTER":112.4588,"MEAN_ANOMALY":247.7429,"EPHEMERIS_TYPE":0,"CLASSIFICATION_TYPE":"U","NORAD_CAT_ID":52737,"ELEMENT_SET_NO":999,"REV_AT_EPOCH":21032,"BSTAR":0.00031249517,"MEAN_MOTION_DOT":9.871e-5,"MEAN_MOTION_DDOT":0},{"OBJECT_NAME":"STARLINK-34267","OBJECT_ID":"2025-167C","EPOCH":"2026-03-09T07:25:19.066944","MEAN_MOTION":15.30193758,"ECCENTRICITY":0.00011356,"INCLINATION":53.1606,"RA_OF_ASC_NODE":26.2001,"ARG_OF_PERICENTER":79.1858,"MEAN_ANOMALY":280.9271,"EPHEMERIS_TYPE":0,"CLASSIFICATION_TYPE":"U","NORAD_CAT_ID":65080,"ELEMENT_SET_NO":999,"REV_AT_EPOCH":3467,"BSTAR":0.0011888808,"MEAN_MOTION_DOT":0.00035011,"MEAN_MOTION_DDOT":0}]
